2023-051A               
1 56172U 23051A   23122.80785418  .00045747  27157-5  36223-3 0  9996
2 56172  97.3319 196.6010 0145353 255.9960 245.0023 15.58722293  3996
INTELSAT 40E            
1 56174U 23052A   23122.60960898 -.00000186  00000+0  00000+0 0  9995
2 56174   0.0206 230.7898 0005539  74.5386  43.2759  1.00457673   389
FALCON 9 R/B            
1 56175U 23052B   23122.07437676  .00031832 -58275-6  12597-2 0  9993
2 56175  27.1049  84.8243 6975479 196.3030 118.3065  2.71611267   688
IMECE                   
1 56178U 23054A   23122.86355324  .00000599  00000+0  11809-3 0  9991
2 56178  98.2117  18.5633 0008847 150.6842 209.4855 14.66064376  3195
2023-054B               
1 56179U 23054B   23122.96626220  .00007938  00000+0  35877-3 0  9994
2 56179  97.4072  18.5190 0008673 185.6852 231.0241 15.21178853  3302
DEWASAT-2               
1 56180U 23054C   23122.88683104  .00011789  00000+0  52493-3 0  9993
2 56180  97.4139  18.4642 0010176 184.8742 175.2397 15.21563522  3277
KILICSAT                
1 56181U 23054D   23122.76202506  .00012151  00000+0  54110-3 0  9996
2 56181  97.4097  18.3345 0009417 182.3145 215.6337 15.21560676  3265
LEMUR-2-ONREFLECTION    
1 56182U 23054E   23122.88542759  .00015470  00000+0  68423-3 0  9996
2 56182  97.4031  18.4392 0008794 176.0298 184.1009 15.21741397  3282
2023-054F               
1 56183U 23054F   23122.88659435  .00008543  00000+0  38225-3 0  9997
2 56183  97.4056  18.4429 0008542 170.8230 189.3164 15.21502204  3281
SSS-2B                  
1 56184U 23054G   23122.88547392  .00011600  00000+0  51478-3 0  9999
2 56184  97.4164  18.4719 0010931 183.7218 176.3938 15.21674619  3283
BRO-9                   
1 56185U 23054H   23122.96113749  .00014786  00000+0  65394-3 0  9994
2 56185  97.4061  18.5228 0009061 175.5869 241.1634 15.21749449  3298
GHGSAT-C8               
1 56186U 23054J   23122.76163209  .00009125  00000+0  40756-3 0  9995
2 56186  97.4107  18.3369 0009967 181.0319 216.9270 15.21530967  3267
LEMUR-2-SPACEGUS        
1 56187U 23054K   23122.88365433  .00015000  00000+0  66057-3 0  9993
2 56187  97.4038  18.4413 0008958 167.3565 192.7897 15.21893736  3285
CIRBE                   
1 56188U 23054L   23122.88258613  .00013665  00000+0  60064-3 0  9992
2 56188  97.4116  18.4652 0010114 175.5311 184.6017 15.21971531  3289
2023-054M               
1 56189U 23054M   23122.88296418  .00008570  00000+0  37974-3 0  9991
2 56189  97.4130  18.4686 0010516 175.4044 184.7291 15.21818684  3285
2023-054N               
1 56190U 23054N   23122.75061097  .00009929  00000+0  43815-3 0  9992
2 56190  97.4063  18.3208 0010037 166.7498 193.4003 15.21919559  3264
HAWK-7A                 
1 56191U 23054P   23122.87994524  .00004506  00000+0  19928-3 0  9990
2 56191  97.4103  18.4739 0011153 169.9673 190.1788 15.22140088  3280
ION SCV-010             
1 56192U 23054Q   23122.88158931  .00005543  00000+0  24640-3 0  9995
2 56192  97.4095  18.4617 0010753 168.5162 191.6322 15.21867031  3282
HAWK-7B                 
1 56193U 23054R   23122.87865440  .00006041  00000+0  26448-3 0  9997
2 56193  97.4069  18.4479 0011864 160.7485 199.4201 15.22343182  3285
2023-054S               
1 56194U 23054S   23122.87916876  .00012767  00000+0  55700-3 0  9993
2 56194  97.4100  18.4664 0010977 168.4164 191.7326 15.22232895  3282
2023-054T               
1 56195U 23054T   23122.87990183  .00007336  00000+0  32314-3 0  9999
2 56195  97.4087  18.4593 0011356 165.2100 194.9470 15.22061388  3287
VIGORIDE-6              
1 56196U 23054U   23122.87660484  .00008543  00000+0  37179-3 0  9993
2 56196  97.4091  18.4680 0011831 169.7585 190.3894 15.22419896  3285
2023-054V               
1 56197U 23054V   23122.87719268  .00007949  00000+0  34730-3 0  9998
2 56197  97.4084  18.4625 0012171 167.0409 193.1143 15.22306712  3281
UMBRA-06                
1 56198U 23054W   23122.76378899  .00022819  00000+0  11780-2 0  9990
2 56198  97.4065  18.3056 0015613 141.2187 219.0169 15.16215578  3265
2023-054X               
1 56199U 23054X   23122.87589710  .00009799  00000+0  42534-3 0  9993
2 56199  97.4100  18.4705 0012211 169.1935 190.9566 15.22463765  3289
HAWK-7C                 
1 56200U 23054Y   23122.87811276  .00005293  00000+0  23480-3 0  9995
2 56200  97.4080  18.4599 0011639 163.0087 197.1541 15.21952431  3288
2023-054Z               
1 56201U 23054Z   23122.87440235  .00010122  00000+0  43742-3 0  9999
2 56201  97.4086  18.4672 0012980 168.2585 191.8956 15.22596353  3286
2023-054AA              
1 56202U 23054AA  23122.67703721  .00010507  00000+0  45371-3 0  9997
2 56202  97.4100  18.2784 0013038 168.6314 191.5219 15.22611900  3257
2023-054AB              
1 56203U 23054AB  23122.87396325  .00010067  00000+0  43455-3 0  9990
2 56203  97.4064  18.4612 0013117 164.8320 195.3312 15.22634868  3289
GHGSAT-C6               
1 56204U 23054AC  23122.74727021  .00009689  00000+0  41668-3 0  9990
2 56204  97.4125  18.3582 0013846 163.5279 232.5548 15.22764579  3267
2023-054AD              
1 56205U 23054AD  23122.66968904  .00009345  00000+0  39620-3 0  9993
2 56205  97.4122  18.2924 0015779 162.0867 198.0929 15.23229661  3255
LEMUR-2-ROMEO-N-LEO     
1 56206U 23054AE  23122.67031624  .00030778  00000+0  12835-2 0  9997
2 56206  97.4034  18.2673 0014236 161.0477 199.1292 15.23538483  3252
2023-054AF              
1 56207U 23054AF  23122.67075604  .00018553  00000+0  78104-3 0  9993
2 56207  97.4161  18.3020 0015169 167.0457 193.1172 15.23311934  3252
2023-054AG              
1 56208U 23054AG  23122.86952801  .00010271  00000+0  43824-3 0  9998
2 56208  97.4025  18.4582 0013979 156.3903 203.7979 15.23010691  3282
GHGSAT-C7               
1 56209U 23054AH  23122.74521755  .00004672  00000+0  20224-3 0  9993
2 56209  97.4090  18.3510 0014047 158.4102 235.8403 15.22825683  3266
CONNECTA T2.1           
1 56210U 23054AJ  23122.74379874  .00006469  00000+0  27743-3 0  9997
2 56210  97.4040  18.3416 0014547 157.5046 236.8685 15.22984623  3263
INSPIRE-SAT 7           
1 56211U 23054AK  23122.66940841  .00016389  00000+0  68876-3 0  9991
2 56211  97.4143  18.2986 0015590 164.6113 195.5602 15.23390259  3258
ROSEYCUBESAT-1          
1 56212U 23054AL  23122.66798724  .00017664  00000+0  73872-3 0  9992
2 56212  97.4149  18.3020 0016051 164.1770 195.9972 15.23533222  3255
2023-054AM              
1 56213U 23054AM  23122.66800981  .00016862  00000+0  70595-3 0  9990
2 56213  97.4068  18.2809 0015474 158.5453 201.6435 15.23514748  3254
LS3C                    
1 56214U 23054AN  23122.66749626  .00014941  00000+0  62554-3 0  9991
2 56214  97.4096  18.2886 0015940 159.9936 200.1929 15.23533480  3256
VCUB1                   
1 56215U 23054AP  23122.75043448  .00016018  00000+0  68379-3 0  9999
2 56215  97.4095  18.3469 0012327 152.1155 243.1726 15.22906911  3184
2023-054AQ              
1 56216U 23054AQ  23117.81962120  .00014346  00000+0  64482-3 0  9991
2 56216  97.4083  13.4739 0007855 176.8690 183.2596 15.21213273  2410
2023-054AR              
1 56217U 23054AR  23120.71080233  .00010389  00000+0  45446-3 0  9993
2 56217  97.4129  16.3309 0011865 179.7888 180.0869 15.22187599  2953
2023-054AS              
1 56218U 23054AS  23122.15920661  .00007055  00000+0  31519-3 0  9994
2 56218  97.4057  17.7419 0010214 165.1628 194.7278 15.21603760  3172
FENGYUN 3G              
1 56232U 23055A   23122.79649743  .00033393  00000+0  53171-3 0  9992
2 56232  49.9996 111.4679 0005588 353.2842  67.9089 15.52893701  2606
STARLINK-30096          
1 56286U 23056A   23122.71932723  .01164528  60966-3  34446-2 0  9997
2 56286  43.0020 122.2349 0002762 132.2883 227.8227 15.91827720  3347
STARLINK-30107          
1 56287U 23056B   23122.91667824 -.01147782  00000+0 -21068-1 0  9996
2 56287  43.0016 122.9271 0001418 263.7120  98.1219 15.51441217  1308
STARLINK-30106          
1 56288U 23056C   23122.91667824 -.01170733  00000+0 -21165-1 0  9997
2 56288  43.0016 122.9251 0001378 262.2590 100.4169 15.51464959  1306
STARLINK-30095          
1 56289U 23056D   23122.91667824  .00223414  00000+0  13261-2 0  9999
2 56289  43.0012 121.8750 0000876 221.7184 205.4831 15.76587112  1302
STARLINK-30103          
1 56290U 23056E   23122.91667824 -.01149051  00000+0 -21086-1 0  9991
2 56290  43.0018 122.9261 0001350 262.1709 100.0787 15.51452089  1306
STARLINK-30113          
1 56291U 23056F   23122.91667824 -.01148364  00000+0 -21057-1 0  9996
2 56291  43.0017 122.9239 0001387 259.0292 104.0716 15.51471487  1302
STARLINK-30098          
1 56292U 23056G   23122.91667824 -.01149245  00000+0 -21053-1 0  9992
2 56292  43.0017 122.9209 0001376 263.1993 101.1670 15.51500346  1306
STARLINK-30090          
1 56293U 23056H   23122.91667824 -.01149305  00000+0 -21062-1 0  9990
2 56293  43.0017 122.9224 0001369 262.0558 101.8893 15.51490205  1307
STARLINK-30049          
1 56294U 23056J   23122.91667824 -.00620178  00000+0 -87312-2 0  9993
2 56294  43.0017 122.7704 0001436 257.9159 167.8531 15.57885937  1301
STARLINK-30083          
1 56295U 23056K   23122.91667824  .00231375  00000+0  13439-2 0  9998
2 56295  43.0012 121.8525 0000982 209.9993 226.2721 15.77053344  1308
STARLINK-30089          
1 56296U 23056L   23122.91667824  .00260760  00000+0  14171-2 0  9993
2 56296  43.0007 121.7730 0001223 186.1909 281.8070 15.78458090  1304
STARLINK-30086          
1 56297U 23056M   23122.91667824 -.00615056  00000+0 -86402-2 0  9994
2 56297  43.0017 122.7655 0001410 258.4790 169.3135 15.57926740  1303
STARLINK-30109          
1 56298U 23056N   23122.91667824 -.00616153  00000+0 -86658-2 0  9997
2 56298  43.0018 122.7689 0001454 260.2637 166.3506 15.57899069  1303
STARLINK-30108          
1 56299U 23056P   23122.05267824  .00136889  00000+0  11372-2 0  9991
2 56299  43.0030 127.6187 0001488 250.5308 109.5398 15.68985818  3107
